[{"OBJECT_NAME":"STARLINK-3727","OBJECT_ID":"2022-029AP","EPOCH":"2026-03-09T08:36:27.052416","MEAN_MOTION":15.0883726,"ECCENTRICITY":0.00019428,"INCLINATION":53.2172,"RA_OF_ASC_NODE":70.6049,"ARG_OF_PERICENTER":75.8388,"MEAN_ANOMALY":284.282,"EPHEMERIS_TYPE":0,"CLASSIFICATION_TYPE":"U","NORAD_CAT_ID":52125,"ELEMENT_SET_NO":999,"REV_AT_EPOCH":22088,"BSTAR":2.5531047e-5,"MEAN_MOTION_DOT":1.18e-6,"MEAN_MOTION_DDOT":0},{"OBJECT_NAME":"PSLV DEB","OBJECT_ID":"2001-049NA","EPOCH":"2026-03-08T15:04:56.759808","MEAN_MOTION":15.08740413,"ECCENTRICITY":0.00254054,"INCLINATION":98.314,"RA_OF_ASC_NODE":131.3874,"ARG_OF_PERICENTER":357.4644,"MEAN_ANOMALY":2.6449,"EPHEMERIS_TYPE":0,"CLASSIFICATION_TYPE":"U","NORAD_CAT_ID":27582,"ELEMENT_SET_NO":999,"REV_AT_EPOCH":27774,"BSTAR":0.00086862236,"MEAN_MOTION_DOT":0.0001368,"MEAN_MOTION_DDOT":0}]
